{
  "type": "FeatureCollection",
  "name": "Contoh_Data_Indonesia",
  "crs": { "type": "name", "properties": { "name": "urn:ogc:def:crs:OGC:1.3:CRS84" } },
  "features": [
    {
      "type": "Feature",
      "properties": { "layer": "Kota", "name": "Jakarta", "populasi": 10560000 },
      "geometry": { "type": "Point", "coordinates": [106.8456, -6.2088] }
    },
    {
      "type": "Feature",
      "properties": { "layer": "Kota", "name": "Medan", "populasi": 2380000 },
      "geometry": { "type": "Point", "coordinates": [98.6722, 3.5952] }
    },
    {
      "type": "Feature",
      "properties": { "layer": "Kota", "name": "Surabaya", "populasi": 3120000 },
      "geometry": { "type": "Point", "coordinates": [112.7521, -7.2504] }
    },
    {
      "type": "Feature",
      "properties": { "layer": "Pulau", "name": "Sumatra" },
      "geometry": {
        "type": "Polygon",
        "coordinates": [[[95.0, 5.5], [105.5, 5.5], [104.0, -6.0], [95.5, -5.5], [95.0, 5.5]]]
      }
    },
    {
      "type": "Feature",
      "properties": { "layer": "Jalan", "name": "Rute Trans-Sumatra" },
      "geometry": {
        "type": "LineString",
        "coordinates": [[95.3, 5.5], [98.67, 3.59], [100.5, 0.5], [104.0, -6.0]]
      }
    },
    {
      "type": "Feature",
      "properties": { "layer": "Area", "name": "Zona Contoh Jakarta" },
      "geometry": {
        "type": "Polygon",
        "coordinates": [[[106.7, -6.1], [107.0, -6.1], [107.0, -6.35], [106.7, -6.35], [106.7, -6.1]]]
      }
    }
  ]
}
